CCSDS_OMM_VERS = 2.0
CREATION_DATE  = 
ORIGINATOR     = 

OBJECT_NAME    = DEAR-5
OBJECT_ID      = 2025-296B
CENTER_NAME    = EARTH
REF_FRAME      = TEME
TIME_SYSTEM    = UTC
MEAN_ELEMENT_THEORY = SGP/SGP4

EPOCH          = 2026-01-04T08:24:40.058496
MEAN_MOTION    = 15.17066558
ECCENTRICITY   = .0019858
INCLINATION    = 41.3576
RA_OF_ASC_NODE = 332.5908
ARG_OF_PERICENTER = 179.2138
MEAN_ANOMALY   = 180.8717

EPHEMERIS_TYPE = 0
CLASSIFICATION_TYPE = U
NORAD_CAT_ID   = 67070
ELEMENT_SET_NO = 999
REV_AT_EPOCH   = 338
BSTAR          = .38712E-3
MEAN_MOTION_DOT = .7653E-4
MEAN_MOTION_DDOT = 0

CCSDS_OMM_VERS = 2.0
CREATION_DATE  = 
ORIGINATOR     = 

OBJECT_NAME    = RAISE-4
OBJECT_ID      = 2025-297B
CENTER_NAME    = EARTH
REF_FRAME      = TEME
TIME_SYSTEM    = UTC
MEAN_ELEMENT_THEORY = SGP/SGP4

EPOCH          = 2026-01-04T04:54:53.566560
MEAN_MOTION    = 15.07390764
ECCENTRICITY   = .0011446
INCLINATION    = 97.4869
RA_OF_ASC_NODE = 156.1512
ARG_OF_PERICENTER = 236.1870
MEAN_ANOMALY   = 123.8269

EPHEMERIS_TYPE = 0
CLASSIFICATION_TYPE = U
NORAD_CAT_ID   = 67073
ELEMENT_SET_NO = 999
REV_AT_EPOCH   = 317
BSTAR          = .45830886E-3
MEAN_MOTION_DOT = .6886E-4
MEAN_MOTION_DDOT = 0

CCSDS_OMM_VERS = 2.0
CREATION_DATE  = 
ORIGINATOR     = 

OBJECT_NAME    = ELECTRON KICK STAGE R/B
OBJECT_ID      = 2025-297C
CENTER_NAME    = EARTH
REF_FRAME      = TEME
TIME_SYSTEM    = UTC
MEAN_ELEMENT_THEORY = SGP/SGP4

EPOCH          = 2026-01-04T09:20:57.181344
MEAN_MOTION    = 15.69340207
ECCENTRICITY   = .016001
INCLINATION    = 97.4771
RA_OF_ASC_NODE = 158.0727
ARG_OF_PERICENTER = 187.0427
MEAN_ANOMALY   = 172.8589

EPHEMERIS_TYPE = 0
CLASSIFICATION_TYPE = U
NORAD_CAT_ID   = 67074
ELEMENT_SET_NO = 999
REV_AT_EPOCH   = 331
BSTAR          = .19813E-2
MEAN_MOTION_DOT = .491715E-2
MEAN_MOTION_DDOT = .74958E-4

CCSDS_OMM_VERS = 2.0
CREATION_DATE  = 
ORIGINATOR     = 

OBJECT_NAME    = STARLINK-36230
OBJECT_ID      = 2025-298A
CENTER_NAME    = EARTH
REF_FRAME      = TEME
TIME_SYSTEM    = UTC
MEAN_ELEMENT_THEORY = SGP/SGP4

EPOCH          = 2026-01-04T12:00:02.998944
MEAN_MOTION    = 15.52450678
ECCENTRICITY   = .0003561
INCLINATION    = 69.9994
RA_OF_ASC_NODE = 185.8911
ARG_OF_PERICENTER = 270.8668
MEAN_ANOMALY   = 75.2735

EPHEMERIS_TYPE = 0
CLASSIFICATION_TYPE = U
NORAD_CAT_ID   = 67075
ELEMENT_SET_NO = 999
REV_AT_EPOCH   = 463
BSTAR          = .23449E-2
MEAN_MOTION_DOT = .146424E-2
MEAN_MOTION_DDOT = 0

CCSDS_OMM_VERS = 2.0
CREATION_DATE  = 
ORIGINATOR     = 

OBJECT_NAME    = STARLINK-36240
OBJECT_ID      = 2025-298B
CENTER_NAME    = EARTH
REF_FRAME      = TEME
TIME_SYSTEM    = UTC
MEAN_ELEMENT_THEORY = SGP/SGP4

EPOCH          = 2026-01-04T12:00:02.998944
MEAN_MOTION    = 15.52470003
ECCENTRICITY   = .000343
INCLINATION    = 69.9993
RA_OF_ASC_NODE = 185.8887
ARG_OF_PERICENTER = 264.3767
MEAN_ANOMALY   = 83.6776

EPHEMERIS_TYPE = 0
CLASSIFICATION_TYPE = U
NORAD_CAT_ID   = 67076
ELEMENT_SET_NO = 999
REV_AT_EPOCH   = 463
BSTAR          = .14721E-2
MEAN_MOTION_DOT = .91287E-3
MEAN_MOTION_DDOT = 0

CCSDS_OMM_VERS = 2.0
CREATION_DATE  = 
ORIGINATOR     = 

OBJECT_NAME    = STARLINK-36243
OBJECT_ID      = 2025-298C
CENTER_NAME    = EARTH
REF_FRAME      = TEME
TIME_SYSTEM    = UTC
MEAN_ELEMENT_THEORY = SGP/SGP4

EPOCH          = 2026-01-04T12:00:02.998944
MEAN_MOTION    = 15.52525712
ECCENTRICITY   = .0003276
INCLINATION    = 69.9994
RA_OF_ASC_NODE = 185.8863
ARG_OF_PERICENTER = 267.8307
MEAN_ANOMALY   = 82.1232

EPHEMERIS_TYPE = 0
CLASSIFICATION_TYPE = U
NORAD_CAT_ID   = 67077
ELEMENT_SET_NO = 999
REV_AT_EPOCH   = 463
BSTAR          = -.12106E-3
MEAN_MOTION_DOT = -.761E-4
MEAN_MOTION_DDOT = 0

CCSDS_OMM_VERS = 2.0
CREATION_DATE  = 
ORIGINATOR     = 

OBJECT_NAME    = STARLINK-36236
OBJECT_ID      = 2025-298D
CENTER_NAME    = EARTH
REF_FRAME      = TEME
TIME_SYSTEM    = UTC
MEAN_ELEMENT_THEORY = SGP/SGP4

EPOCH          = 2026-01-04T12:00:02.998944
MEAN_MOTION    = 15.52528929
ECCENTRICITY   = .0003342
INCLINATION    = 69.9995
RA_OF_ASC_NODE = 185.8837
ARG_OF_PERICENTER = 269.1381
MEAN_ANOMALY   = 82.7276

EPHEMERIS_TYPE = 0
CLASSIFICATION_TYPE = U
NORAD_CAT_ID   = 67078
ELEMENT_SET_NO = 999
REV_AT_EPOCH   = 463
BSTAR          = -.17702E-3
MEAN_MOTION_DOT = -.11047E-3
MEAN_MOTION_DDOT = 0

CCSDS_OMM_VERS = 2.0
CREATION_DATE  = 
ORIGINATOR     = 

OBJECT_NAME    = STARLINK-36159
OBJECT_ID      = 2025-298E
CENTER_NAME    = EARTH
REF_FRAME      = TEME
TIME_SYSTEM    = UTC
MEAN_ELEMENT_THEORY = SGP/SGP4

EPOCH          = 2026-01-04T12:00:02.998944
MEAN_MOTION    = 15.42692798
ECCENTRICITY   = .0003319
INCLINATION    = 69.9997
RA_OF_ASC_NODE = 186.0591
ARG_OF_PERICENTER = 264.5078
MEAN_ANOMALY   = 295.1450

EPHEMERIS_TYPE = 0
CLASSIFICATION_TYPE = U
NORAD_CAT_ID   = 67079
ELEMENT_SET_NO = 999
REV_AT_EPOCH   = 463
BSTAR          = .11938E-2
MEAN_MOTION_DOT = .52452E-3
MEAN_MOTION_DDOT = 0

CCSDS_OMM_VERS = 2.0
CREATION_DATE  = 
ORIGINATOR     = 

OBJECT_NAME    = STARLINK-36158
OBJECT_ID      = 2025-298F
CENTER_NAME    = EARTH
REF_FRAME      = TEME
TIME_SYSTEM    = UTC
MEAN_ELEMENT_THEORY = SGP/SGP4

EPOCH          = 2026-01-04T12:00:02.998944
MEAN_MOTION    = 15.52674285
ECCENTRICITY   = .0003413
INCLINATION    = 69.9996
RA_OF_ASC_NODE = 185.8801
ARG_OF_PERICENTER = 271.1999
MEAN_ANOMALY   = 84.4696

EPHEMERIS_TYPE = 0
CLASSIFICATION_TYPE = U
NORAD_CAT_ID   = 67080
ELEMENT_SET_NO = 999
REV_AT_EPOCH   = 457
BSTAR          = -.66733E-2
MEAN_MOTION_DOT = -.393282E-2
MEAN_MOTION_DDOT = 0

CCSDS_OMM_VERS = 2.0
CREATION_DATE  = 
ORIGINATOR     = 

OBJECT_NAME    = STARLINK-35864
OBJECT_ID      = 2025-298G
CENTER_NAME    = EARTH
REF_FRAME      = TEME
TIME_SYSTEM    = UTC
MEAN_ELEMENT_THEORY = SGP/SGP4

EPOCH          = 2026-01-04T12:00:02.998944
MEAN_MOTION    = 15.50849897
ECCENTRICITY   = .0003537
INCLINATION    = 69.9995
RA_OF_ASC_NODE = 185.8796
ARG_OF_PERICENTER = 269.1631
MEAN_ANOMALY   = 87.3314

EPHEMERIS_TYPE = 0
CLASSIFICATION_TYPE = U
NORAD_CAT_ID   = 67081
ELEMENT_SET_NO = 999
REV_AT_EPOCH   = 463
BSTAR          = -.39765E-1
MEAN_MOTION_DOT = -.2055027E-1
MEAN_MOTION_DDOT = 0

CCSDS_OMM_VERS = 2.0
CREATION_DATE  = 
ORIGINATOR     = 

OBJECT_NAME    = STARLINK-36035
OBJECT_ID      = 2025-298H
CENTER_NAME    = EARTH
REF_FRAME      = TEME
TIME_SYSTEM    = UTC
MEAN_ELEMENT_THEORY = SGP/SGP4

EPOCH          = 2026-01-04T12:00:02.998944
MEAN_MOTION    = 15.47763545
ECCENTRICITY   = .0003682
INCLINATION    = 70.0000
RA_OF_ASC_NODE = 185.8847
ARG_OF_PERICENTER = 267.9182
MEAN_ANOMALY   = 82.6413

EPHEMERIS_TYPE = 0
CLASSIFICATION_TYPE = U
NORAD_CAT_ID   = 67082
ELEMENT_SET_NO = 999
REV_AT_EPOCH   = 463
BSTAR          = -.4385E-1
MEAN_MOTION_DOT = -.2034187E-1
MEAN_MOTION_DDOT = 0

CCSDS_OMM_VERS = 2.0
CREATION_DATE  = 
ORIGINATOR     = 

OBJECT_NAME    = STARLINK-36170
OBJECT_ID      = 2025-298J
CENTER_NAME    = EARTH
REF_FRAME      = TEME
TIME_SYSTEM    = UTC
MEAN_ELEMENT_THEORY = SGP/SGP4

EPOCH          = 2026-01-04T12:00:02.998944
MEAN_MOTION    = 15.52452611
ECCENTRICITY   = .0003333
INCLINATION    = 69.9994
RA_OF_ASC_NODE = 185.8719
ARG_OF_PERICENTER = 268.4533
MEAN_ANOMALY   = 93.0222

EPHEMERIS_TYPE = 0
CLASSIFICATION_TYPE = U
NORAD_CAT_ID   = 67083
ELEMENT_SET_NO = 999
REV_AT_EPOCH   = 463
BSTAR          = .21706E-2
MEAN_MOTION_DOT = .135342E-2
MEAN_MOTION_DDOT = 0

