DEAR-5                  
1 67070U 25296B   26004.35046364  .00007653  00000+0  38712-3 0  9991
2 67070  41.3576 332.5908 0019858 179.2138 180.8717 15.17066558  3380
RAISE-4                 
1 67073U 25297B   26004.20478665  .00006886  00000+0  45831-3 0  9999
2 67073  97.4869 156.1512 0011446 236.1870 123.8269 15.07390764  3176
ELECTRON KICK STAGE R/B 
1 67074U 25297C   26004.38955071  .00491715  74958-4  19813-2 0  9997
2 67074  97.4771 158.0727 0160010 187.0427 172.8589 15.69340207  3312
STARLINK-36230          
1 67075U 25298A   26004.50003471  .00146424  00000+0  23449-2 0  9997
2 67075  69.9994 185.8911 0003561 270.8668  75.2735 15.52450678  4633
STARLINK-36240          
1 67076U 25298B   26004.50003471  .00091287  00000+0  14721-2 0  9997
2 67076  69.9993 185.8887 0003430 264.3767  83.6776 15.52470003  4630
STARLINK-36243          
1 67077U 25298C   26004.50003471 -.00007610  00000+0 -12106-3 0  9993
2 67077  69.9994 185.8863 0003276 267.8307  82.1232 15.52525712  4631
STARLINK-36236          
1 67078U 25298D   26004.50003471 -.00011047  00000+0 -17702-3 0  9990
2 67078  69.9995 185.8837 0003342 269.1381  82.7276 15.52528929  4632
STARLINK-36159          
1 67079U 25298E   26004.50003471  .00052452  00000+0  11938-2 0  9998
2 67079  69.9997 186.0591 0003319 264.5078 295.1450 15.42692798  4630
STARLINK-36158          
1 67080U 25298F   26004.50003471 -.00393282  00000+0 -66733-2 0  9994
2 67080  69.9996 185.8801 0003413 271.1999  84.4696 15.52674285  4579
STARLINK-35864          
1 67081U 25298G   26004.50003471 -.02055027  00000+0 -39765-1 0  9993
2 67081  69.9995 185.8796 0003537 269.1631  87.3314 15.50849897  4636
STARLINK-36035          
1 67082U 25298H   26004.50003471 -.02034187  00000+0 -43850-1 0  9998
2 67082  70.0000 185.8847 0003682 267.9182  82.6413 15.47763545  4631
STARLINK-36170          
1 67083U 25298J   26004.50003471  .00135342  00000+0  21706-2 0  9997
2 67083  69.9994 185.8719 0003333 268.4533  93.0222 15.52452611  4637
